ONEWEB-0144             
1 47290U 20100AJ  26015.51052730 -.00000370  00000+0 -10648-2 0  9994
2 47290  87.8929  20.9483 0001526  99.8148 260.3152 13.12443015244548
ONEWEB-0145             
1 47291U 20100AK  26015.48173608 -.00000047  00000+0 -16566-3 0  9996
2 47291  87.8929  20.9931 0001720  92.1367 267.9958 13.12440463244734
ONEWEB-0146             
1 47292U 20100AL  26015.47836498  .00000104  00000+0  25390-3 0  9996
2 47292  87.8927  20.9791 0001912  79.2801 280.8543 13.12440484244646
ONEWEB-0147             
1 47293U 20100AM  26015.44446369  .00000175  00000+0  45011-3 0  9998
2 47293  87.8929  20.9650 0001485  85.5493 274.5805 13.12444469244531
ONEWEB-0115             
1 48042U 21025A   26015.36343890 -.00001992  00000+0 -54911-2 0  9992
2 48042  87.9003 350.5867 0001959  82.2414 277.8937 13.13479688233535
ONEWEB-0152             
1 48043U 21025B   26015.37701493  .00000438  00000+0  11652-2 0  9998
2 48043  87.9001 350.5887 0001844  79.6642 280.4695 13.13469863233492
ONEWEB-0153             
1 48044U 21025C   26015.35499795  .00000056  00000+0  11979-3 0  9995
2 48044  87.8998 350.5994 0001760  86.7984 273.3347 13.13471688233483
ONEWEB-0154             
1 48045U 21025D   26015.35161266 -.00000034  00000+0 -12816-3 0  9994
2 48045  87.9004 350.5968 0001708  82.2021 277.9302 13.13470583233449
